FENGYUN 1C DEB          
1 31087U 99025BGH 17345.58268953  .00000363  00000-0  91518-4 0  9990
2 31087  98.4349  27.2441 0213510 231.7010 288.4231 14.44740448564557
